[Satellite]
VERSION=1.1
NAME=RADUGA 29 [-]
NICKNAME=RADUGA 29 [-]
TLE1=1 22557U 93013A   17185.86049003 -.00000345  00000-0  00000-0 0  9992
TLE2=2 22557  14.9198  13.3676 0000962  85.3288 267.8654  1.00255180 88918
